OSCAR 7 (AO-7)          
1 07530U 74089B   22227.41310266 -.00000042  00000+0  24662-4 0  9991
2 07530 101.9089 207.4787 0011892 290.2728 225.3167 12.53656306184850
PHASE 3B (AO-10)        
1 14129U 83058B   22227.03610944 -.00000366  00000+0  00000+0 0  9997
2 14129  26.4804  86.7170 6016464  98.1606 330.0085  2.05871714266614
UOSAT 2 (UO-11)         
1 14781U 84021B   22227.39377357  .00000567  00000+0  74595-4 0  9996
2 14781  97.6214 212.1555 0009686 122.2955 237.9199 14.83753557 48783
LUSAT (LO-19)           
1 20442U 90005G   22227.37812596  .00000063  00000+0  39885-4 0  9997
2 20442  98.7985 193.1540 0011796   1.6510 358.4711 14.33077126701540
EYESAT A (AO-27)        
1 22825U 93061C   22227.35158034  .00000030  00000+0  29632-4 0  9990
2 22825  98.8840 259.6246 0007532 235.9030 124.1437 14.30185609506573
ITAMSAT (IO-26)         
1 22826U 93061D   22227.08075756  .00000042  00000+0  34065-4 0  9999
2 22826  98.8784 259.2238 0008227 222.1880 137.8669 14.30533092506796
RADIO ROSTO (RS-15)     
1 23439U 94085A   22227.55320016 -.00000039  00000+0  10000-3 0  9990
2 23439  64.8126  50.0257 0167821 262.4292  95.7539 11.27571892138150
JAS-2 (FO-29)           
1 24278U 96046B   22227.51417994 -.00000015  00000+0  17388-4 0  9990
2 24278  98.5154 243.0793 0351182 129.9523 233.3029 13.53118829283596
TECHSAT 1B (GO-32)      
1 25397U 98043D   22227.39036746  .00000024  00000+0  30271-4 0  9995
2 25397  98.8209 178.0254 0000680 359.6208   0.4970 14.23765622251813
ISS (ZARYA)             
1 25544U 98067A   22227.72334491  .00005548  00000+0  10443-3 0  9994
2 25544  51.6425  41.6453 0005584 125.2007  46.5335 15.50188509354412
PCSAT (NO-44)           
1 26931U 01043C   22227.52244863  .00000032  00000+0  43765-4 0  9991
2 26931  67.0498 265.9297 0006830 257.6291 102.4046 14.30723874 89852
SAUDISAT 1C (SO-50)     
1 27607U 02058C   22227.12535485  .00000367  00000+0  70772-4 0  9997
2 27607  64.5547 122.3478 0080733 283.1809  76.0295 14.76200448 57034
CUTE-1 (CO-55)          
1 27844U 03031E   22227.01982617  .00000145  00000+0  84740-4 0  9997
2 27844  98.6795 233.8232 0008749 296.1818  63.8460 14.22479387992191
CUBESAT XI-IV (CO-57)   
1 27848U 03031J   22227.49364795  .00000120  00000+0  74154-4 0  9995
2 27848  98.6841 234.7973 0008794 310.5018  49.5392 14.22033169992078
MOZHAYETS 4 (RS-22)     
1 27939U 03042A   22227.58570178  .00000513  00000+0  99407-4 0  9996
2 27939  98.1999   8.3153 0013401  26.9637 333.2265 14.67424776  9718
CUBESAT XI-V            
1 28895U 05043F   22227.34977976  .00000558  00000+0  11447-3 0  9998
2 28895  98.1139 357.8464 0015639 319.3975  40.6061 14.64425401896037
FALCONSAT-3             
1 30776U 07006E   22227.44152581  .00035265  00000+0  46657-3 0  9992
2 30776  35.4292 232.7304 0004177 235.9910 124.0426 15.57283785858774
CUTE-1.7+APD II (CO-65) 
1 32785U 08021C   22227.33866418  .00001454  00000+0  15707-3 0  9996
2 32785  97.6618 196.3415 0013759  44.1174 316.1138 14.89755818775254
DELFI-C3 (DO-64)        
1 32789U 08021G   22227.02612415  .00009671  00000+0  52145-3 0  9998
2 32789  97.3362 251.2443 0012002 118.0853 242.1595 15.14915088780794
SEEDS II (CO-66)        
1 32791U 08021J   22227.16130336  .00002004  00000+0  19826-3 0  9995
2 32791  97.6158 201.6011 0012686   2.9129 357.2162 14.92918200775952
YUBILEINY (RS-30)       
1 32953U 08025A   22227.53341817  .00000024  00000+0  10000-3 0  9993
2 32953  82.5046 147.2063 0019783 128.1848 232.1017 12.43112548645677
KKS-1 (KISEKI)          
1 33499U 09002H   22227.49012541  .00000473  00000+0  76239-4 0  9994
2 33499  98.2093 110.4935 0010099 121.6254 238.5942 14.76084156728950
SWISSCUBE               
1 35932U 09051B   22227.57768760  .00000407  00000+0  10158-3 0  9996
2 35932  98.5624  85.1496 0006571 219.7870 140.2846 14.56925308684707
BEESAT-1                
1 35933U 09051C   22227.25755338  .00000342  00000+0  86973-4 0  9996
2 35933  98.5563  86.4096 0004614 233.7445 126.3327 14.56933631684730
ITUPSAT1                
1 35935U 09051E   22227.31102593  .00000305  00000+0  80329-4 0  9992
2 35935  98.5664  86.5048 0006881 239.4021 120.6498 14.56037737684449
XIWANG-1 (HOPE-1)       
1 36122U 09072B   22227.40186896 -.00000014  00000+0  74986-4 0  9992
2 36122 100.1875 196.6095 0007127 200.9502 159.1321 13.16370939608568
JUGNU                   
1 37839U 11058B   22227.25928831  .00000360  00000+0  49769-4 0  9995
2 37839  19.9597 178.7795 0019094  85.5755  60.6972 14.12798478560466
SRMSAT                  
1 37841U 11058D   22227.48133729  .00000342  00000+0  42788-4 0  9991
2 37841  19.9712 258.1184 0011648 272.8391 234.3536 14.10765555559582
M-CUBED & EXP-1 PRIME   
1 37855U 11061F   22227.36832660  .00008041  00000+0  34855-3 0  9996
2 37855 101.7173  17.6849 0151338 245.7065 112.8281 15.13130243590140
STRAND-1                
1 39090U 13009E   22227.48451418  .00000119  00000+0  56461-4 0  9990
2 39090  98.4027  64.0737 0010302  94.8188 265.4175 14.35313749495866
SOMP                    
1 39134U 13015E   22227.42235709  .00010201  00000+0  35187-3 0  9997
2 39134  64.8595 228.1573 0035659 271.5630  88.1417 15.29835009515876
BEESAT-3                
1 39135U 13015F   22227.37157176  .00007388  00000+0  29817-3 0  9998
2 39135  64.8640 265.8279 0039318 276.6773  82.9883 15.24815174515098
BEESAT-2                
1 39136U 13015G   22227.52407948  .00006421  00000+0  27250-3 0  9997
2 39136  64.8731 273.8439 0020394 297.0463  62.8585 15.23780667514917
ZACUBE-1 (TSHEPISOSAT)  
1 39417U 13066B   22227.36059722  .00001069  00000+0  13598-3 0  9993
2 39417  97.6408 196.2188 0056670 210.1457 149.6492 14.82508283471850
GOMX-1                  
1 39430U 13066Q   22227.52063699  .00000652  00000+0  12493-3 0  9994
2 39430  97.8048 131.3406 0147951 218.2767 140.7851 14.60302877464913
CUBEBUG-2 (LO-74)       
1 39440U 13066AA  22227.39098606  .00001297  00000+0  18174-3 0  9994
2 39440  97.7297 182.4868 0077182 301.0164  58.3482 14.77174582468981
FUNCUBE-1 (AO-73)       
1 39444U 13066AE  22227.40117116  .00001252  00000+0  15408-3 0  9996
2 39444  97.6289 198.6715 0055810 197.6432 162.2846 14.83620442470267
UWE-3                   
1 39446U 13066AG  22227.37844968  .00001066  00000+0  14354-3 0  9998
2 39446  97.6897 188.9148 0066845 256.9941 102.3802 14.79733657469173
SPROUT                  
1 39770U 14029E   22227.56596297  .00006125  00000+0  61744-3 0  9994
2 39770  97.9484 344.9086 0007146 248.7620 111.2833 14.91482645446478
UNISAT-6                
1 40012U 14033C   22227.47212933  .00000766  00000+0  11826-3 0  9993
2 40012  97.6630  52.2874 0056605 329.2400  30.5496 14.75023333438687
DUCHIFAT-1              
1 40021U 14033M   22227.51811936  .00002024  00000+0  19941-3 0  9991
2 40021  98.0152 178.8140 0011712 199.2156 160.8622 14.93171486443514
QB50P1                  
1 40025U 14033R   22227.39689135  .00001650  00000+0  17386-3 0  9990
2 40025  97.9611 165.2680 0011049 217.6331 142.4115 14.90707206442545
NUDT-PHONESAT           
1 40900U 15049B   22227.56043272  .00024436  00000+0  64275-3 0  9991
2 40900  97.3977 245.9495 0010919  80.7509  18.2894 15.38505388383691
ZDPS 2A                 
1 40901U 15049C   22227.24231527  .00008100  00000+0  32641-3 0  9991
2 40901  97.4593 235.7888 0013182 133.2190 227.0150 15.25027979382410
ZDPS 2B                 
1 40902U 15049D   22227.53963355  .00009438  00000+0  37692-3 0  9991
2 40902  97.4672 233.8388 0013042 129.4197 330.1280 15.25282410382437
XW-2A                   
1 40903U 15049E   22227.56150590  .00019766  00000+0  28864-3 0  9990
2 40903  97.1744 286.2552 0007261 254.9648 241.1177 15.55659474388445
KAITUO 1A               
1 40904U 15049F   22227.57214291  .00003375  00000+0  16764-3 0  9996
2 40904  97.4952 229.5387 0014227 157.7851 350.9471 15.18280387381836
2015-049G               
1 40905U 15049G   22227.56207237  .00002397  00000+0  12514-3 0  9990
2 40905  97.5153 226.7346 0015263 161.9467 293.2224 15.16807522381576
XW-2C                   
1 40906U 15049H   22227.54375558  .00004250  00000+0  20259-3 0  9996
2 40906  97.4944 230.5055 0014664 146.3045 312.6534 15.19561049381896
XW-2D                   
1 40907U 15049J   22227.54029880  .00004959  00000+0  23097-3 0  9990
2 40907  97.4925 230.5366 0014145 141.7256 317.2626 15.20282999381943
LILACSAT-2              
1 40908U 15049K   22227.51398561  .00002145  00000+0  11467-3 0  9996
2 40908  97.5181 227.5265 0015511 166.0809 351.7363 15.16066167381432
XW-2E                   
1 40909U 15049L   22227.56497839  .00007792  00000+0  31999-3 0  9995
2 40909  97.4651 235.2244 0013685 123.5751 335.3986 15.24398497382412
XW-2F                   
1 40910U 15049M   22227.52309248  .00007776  00000+0  32436-3 0  9998
2 40910  97.4720 234.3305 0014368 123.9171  28.6149 15.23862798382173
XW-2B                   
1 40911U 15049N   22227.50472203  .00004751  00000+0  22224-3 0  9993
2 40911  97.4921 231.0832 0013956 143.7129 318.9560 15.20163310381825
KAITUO 1B               
1 40912U 15049P   22227.53614125  .00009262  00000+0  35012-3 0  9999
2 40912  97.4363 238.6924 0014636  93.8307  59.7899 15.27096951382762
TIANWANG 1A (TW-1A)     
1 40928U 15051D   22227.36721446  .00044784  00000+0  46920-3 0  9993
2 40928  97.0341 249.6745 0008513 148.5817 335.8829 15.64245255387439
LAPAN-A2                
1 40931U 15052B   22227.13691865  .00001144  00000+0  69747-4 0  9990
2 40931   5.9989 110.4410 0013756 283.5432  76.3423 14.76845409372037
E-ST@R-II               
1 41459U 16025D   22227.44083328  .00010198  00000+0  42842-3 0  9995
2 41459  98.1906  37.0279 0143142  69.3205 292.3270 15.14720639346428
AAUSAT 4                
1 41460U 16025E   22227.44420535  .00015114  00000+0  55226-3 0  9995
2 41460  98.1824  43.7966 0121775  43.3835 317.6884 15.21399681346907
